{
"type": "FeatureCollection",
"name": "osm_police_stations",
"crs": { "type": "name", "properties": { "name": "urn:ogc:def:crs:OGC:1.3:CRS84" } },
"features": [
{ "type": "Feature", "properties": { "osm_id": 13851770436, "osm_type": "node", "amenity": "police", "name": "Unnamed", "latitude": 18.4574226, "longitude": 73.8436593 }, "geometry": { "type": "Point", "coordinates": [ 73.8436593, 18.4574226 ] } },
{ "type": "Feature", "properties": { "osm_id": 4405664297, "osm_type": "node", "amenity": "police", "name": "Unnamed", "latitude": 18.4637816, "longitude": 73.8154722 }, "geometry": { "type": "Point", "coordinates": [ 73.8154722, 18.4637816 ] } },
{ "type": "Feature", "properties": { "osm_id": 11330878781, "osm_type": "node", "amenity": "police", "name": "Vadgaon Budruk Police Chowki", "latitude": 18.4689831, "longitude": 73.8327946 }, "geometry": { "type": "Point", "coordinates": [ 73.8327946, 18.4689831 ] } },
{ "type": "Feature", "properties": { "osm_id": 365655187, "osm_type": "way", "amenity": "police", "name": "Sinhagad Road Police Station", "latitude": 18.4730707, "longitude": 73.8138595 }, "geometry": { "type": "Point", "coordinates": [ 73.8138595, 18.4730707 ] } },
{ "type": "Feature", "properties": { "osm_id": 1550975455, "osm_type": "way", "amenity": "police", "name": "Parvati0 police station", "latitude": 18.4956471, "longitude": 73.842194 }, "geometry": { "type": "Point", "coordinates": [ 73.842194, 18.4956471 ] } },
{ "type": "Feature", "properties": { "osm_id": 2509520919, "osm_type": "node", "amenity": "police", "name": "Alankar Police Chowki", "latitude": 18.4984329, "longitude": 73.8262153 }, "geometry": { "type": "Point", "coordinates": [ 73.8262153, 18.4984329 ] } },
{ "type": "Feature", "properties": { "osm_id": 5253713305, "osm_type": "node", "amenity": "police", "name": "Dattawadi Police Chowki", "latitude": 18.5010017, "longitude": 73.840267 }, "geometry": { "type": "Point", "coordinates": [ 73.840267, 18.5010017 ] } },
{ "type": "Feature", "properties": { "osm_id": 2517303173, "osm_type": "node", "amenity": "police", "name": "Senadatta Police Chowki", "latitude": 18.5052065, "longitude": 73.8446033 }, "geometry": { "type": "Point", "coordinates": [ 73.8446033, 18.5052065 ] } },
{ "type": "Feature", "properties": { "osm_id": 2868930215, "osm_type": "node", "amenity": "police", "name": "Paud Phata Police Chowki", "latitude": 18.5064508, "longitude": 73.8245986 }, "geometry": { "type": "Point", "coordinates": [ 73.8245986, 18.5064508 ] } },
{ "type": "Feature", "properties": { "osm_id": 6466099451, "osm_type": "node", "amenity": "police", "name": "Velhe Police Station", "latitude": 18.2912199, "longitude": 73.6369313 }, "geometry": { "type": "Point", "coordinates": [ 73.6369313, 18.2912199 ] } },
{ "type": "Feature", "properties": { "osm_id": 1028611648, "osm_type": "way", "amenity": "police", "name": "Bavdhan Police Station", "latitude": 18.5113127, "longitude": 73.777488 }, "geometry": { "type": "Point", "coordinates": [ 73.777488, 18.5113127 ] } },
{ "type": "Feature", "properties": { "osm_id": 2420756045, "osm_type": "node", "amenity": "police", "name": "Bavdhan Police Chowki", "latitude": 18.5224956, "longitude": 73.7795837 }, "geometry": { "type": "Point", "coordinates": [ 73.7795837, 18.5224956 ] } },
{ "type": "Feature", "properties": { "osm_id": 1356854735, "osm_type": "way", "amenity": "police", "name": "Unnamed", "latitude": 18.5230529, "longitude": 73.6157401 }, "geometry": { "type": "Point", "coordinates": [ 73.6157401, 18.5230529 ] } },
{ "type": "Feature", "properties": { "osm_id": 652054928, "osm_type": "way", "amenity": "police", "name": "Baner Police Station", "latitude": 18.5686585, "longitude": 73.7748966 }, "geometry": { "type": "Point", "coordinates": [ 73.7748966, 18.5686585 ] } },
{ "type": "Feature", "properties": { "osm_id": 1098988707, "osm_type": "way", "amenity": "police", "name": "Hinjawadi police station", "latitude": 18.5861167, "longitude": 73.7356936 }, "geometry": { "type": "Point", "coordinates": [ 73.7356936, 18.5861167 ] } },
{ "type": "Feature", "properties": { "osm_id": 1222440025, "osm_type": "way", "amenity": "police", "name": "Unnamed", "latitude": 18.5865997, "longitude": 73.7369373 }, "geometry": { "type": "Point", "coordinates": [ 73.7369373, 18.5865997 ] } },
{ "type": "Feature", "properties": { "osm_id": 2146313490, "osm_type": "node", "amenity": "police", "name": "Hinjawadi Police Chowki", "latitude": 18.5917477, "longitude": 73.7387073 }, "geometry": { "type": "Point", "coordinates": [ 73.7387073, 18.5917477 ] } },
{ "type": "Feature", "properties": { "osm_id": 11786140865, "osm_type": "node", "amenity": "police", "name": "Kothrud Police Station", "latitude": 18.506629, "longitude": 73.8024748 }, "geometry": { "type": "Point", "coordinates": [ 73.8024748, 18.506629 ] } },
{ "type": "Feature", "properties": { "osm_id": 678444711, "osm_type": "node", "amenity": "police", "name": "Sambhaji Police Chowki", "latitude": 18.5131785, "longitude": 73.8438921 }, "geometry": { "type": "Point", "coordinates": [ 73.8438921, 18.5131785 ] } },
{ "type": "Feature", "properties": { "osm_id": 1534465625, "osm_type": "node", "amenity": "police", "name": "Deccan Gymkhana Police Chowki", "latitude": 18.5141406, "longitude": 73.8403808 }, "geometry": { "type": "Point", "coordinates": [ 73.8403808, 18.5141406 ] } },
{ "type": "Feature", "properties": { "osm_id": 3386030401, "osm_type": "node", "amenity": "police", "name": "Prabhat Police Chowki", "latitude": 18.5145218, "longitude": 73.8333062 }, "geometry": { "type": "Point", "coordinates": [ 73.8333062, 18.5145218 ] } },
{ "type": "Feature", "properties": { "osm_id": 10219138027, "osm_type": "node", "amenity": "police", "name": "bavdhandhan  Police Station", "latitude": 18.5225916, "longitude": 73.7796133 }, "geometry": { "type": "Point", "coordinates": [ 73.7796133, 18.5225916 ] } },
{ "type": "Feature", "properties": { "osm_id": 1032594150, "osm_type": "way", "amenity": "police", "name": "Pashan Police station", "latitude": 18.5382156, "longitude": 73.7981062 }, "geometry": { "type": "Point", "coordinates": [ 73.7981062, 18.5382156 ] } },
{ "type": "Feature", "properties": { "osm_id": 10172966014, "osm_type": "node", "amenity": "police", "name": "Centre for Police Research - CPR,", "latitude": 18.540655, "longitude": 73.8224604 }, "geometry": { "type": "Point", "coordinates": [ 73.8224604, 18.540655 ] } },
{ "type": "Feature", "properties": { "osm_id": 218691368, "osm_type": "way", "amenity": "police", "name": "Chavan Nagar - Pune Rural Police Headquarters", "latitude": 18.5436346, "longitude": 73.8228324 }, "geometry": { "type": "Point", "coordinates": [ 73.8228324, 18.5436346 ] } },
{ "type": "Feature", "properties": { "osm_id": 641670813, "osm_type": "way", "amenity": "police", "name": "Chaturshringi Police Station", "latitude": 18.5461302, "longitude": 73.8257533 }, "geometry": { "type": "Point", "coordinates": [ 73.8257533, 18.5461302 ] } },
{ "type": "Feature", "properties": { "osm_id": 10807210956, "osm_type": "node", "amenity": "police", "name": "Sangvi Police Station", "latitude": 18.5785932, "longitude": 73.8156391 }, "geometry": { "type": "Point", "coordinates": [ 73.8156391, 18.5785932 ] } },
{ "type": "Feature", "properties": { "osm_id": 10725513809, "osm_type": "node", "amenity": "police", "name": "Wakad Police Chowky", "latitude": 18.5920496, "longitude": 73.75756 }, "geometry": { "type": "Point", "coordinates": [ 73.75756, 18.5920496 ] } },
{ "type": "Feature", "properties": { "osm_id": 10302381890, "osm_type": "node", "amenity": "police", "name": "Wakad Police Station", "latitude": 18.607337, "longitude": 73.7653112 }, "geometry": { "type": "Point", "coordinates": [ 73.7653112, 18.607337 ] } },
{ "type": "Feature", "properties": { "osm_id": 10657354394, "osm_type": "node", "amenity": "police", "name": "Police Station Ravet", "latitude": 18.6418999, "longitude": 73.7554515 }, "geometry": { "type": "Point", "coordinates": [ 73.7554515, 18.6418999 ] } },
{ "type": "Feature", "properties": { "osm_id": 265902954, "osm_type": "way", "amenity": "police", "name": "Akurdi Police Chowky", "latitude": 18.6507414, "longitude": 73.7670685 }, "geometry": { "type": "Point", "coordinates": [ 73.7670685, 18.6507414 ] } },
{ "type": "Feature", "properties": { "osm_id": 3498347007, "osm_type": "node", "amenity": "police", "name": "Pradhikaran Police Chowki", "latitude": 18.6621064, "longitude": 73.774177 }, "geometry": { "type": "Point", "coordinates": [ 73.774177, 18.6621064 ] } },
{ "type": "Feature", "properties": { "osm_id": 13640134582, "osm_type": "node", "amenity": "police", "name": "Police Station", "latitude": 18.6863063, "longitude": 73.7211878 }, "geometry": { "type": "Point", "coordinates": [ 73.7211878, 18.6863063 ] } },
{ "type": "Feature", "properties": { "osm_id": 11268303847, "osm_type": "node", "amenity": "police", "name": "Unnamed", "latitude": 18.6967146, "longitude": 73.6584954 }, "geometry": { "type": "Point", "coordinates": [ 73.6584954, 18.6967146 ] } },
{ "type": "Feature", "properties": { "osm_id": 13640129386, "osm_type": "node", "amenity": "police", "name": "Police Station Talegaon Dabhade", "latitude": 18.7141622, "longitude": 73.6771428 }, "geometry": { "type": "Point", "coordinates": [ 73.6771428, 18.7141622 ] } },
{ "type": "Feature", "properties": { "osm_id": 2684638055, "osm_type": "node", "amenity": "police", "name": "Police Madat Kendra", "latitude": 18.7433889, "longitude": 73.4833228 }, "geometry": { "type": "Point", "coordinates": [ 73.4833228, 18.7433889 ] } },
{ "type": "Feature", "properties": { "osm_id": 13716623601, "osm_type": "node", "amenity": "police", "name": "Lonavala police station", "latitude": 18.747556, "longitude": 73.4071836 }, "geometry": { "type": "Point", "coordinates": [ 73.4071836, 18.747556 ] } },
{ "type": "Feature", "properties": { "osm_id": 1703723978, "osm_type": "node", "amenity": "police", "name": "Pimple Saudagar Police Statiom", "latitude": 18.6015562, "longitude": 73.7993609 }, "geometry": { "type": "Point", "coordinates": [ 73.7993609, 18.6015562 ] } },
{ "type": "Feature", "properties": { "osm_id": 13638581251, "osm_type": "node", "amenity": "police", "name": "Police Station Pimple Saudagar", "latitude": 18.6018193, "longitude": 73.7990918 }, "geometry": { "type": "Point", "coordinates": [ 73.7990918, 18.6018193 ] } },
{ "type": "Feature", "properties": { "osm_id": 10304957656, "osm_type": "node", "amenity": "police", "name": "Chinchwad Police Station", "latitude": 18.6293245, "longitude": 73.7799961 }, "geometry": { "type": "Point", "coordinates": [ 73.7799961, 18.6293245 ] } },
{ "type": "Feature", "properties": { "osm_id": 7083553571, "osm_type": "node", "amenity": "police", "name": "PCMC Police Station", "latitude": 18.639873, "longitude": 73.7950186 }, "geometry": { "type": "Point", "coordinates": [ 73.7950186, 18.639873 ] } },
{ "type": "Feature", "properties": { "osm_id": 7011007177, "osm_type": "node", "amenity": "police", "name": "Unnamed", "latitude": 18.6478898, "longitude": 73.8425166 }, "geometry": { "type": "Point", "coordinates": [ 73.8425166, 18.6478898 ] } },
{ "type": "Feature", "properties": { "osm_id": 13639040197, "osm_type": "node", "amenity": "police", "name": "Marungi Police Station", "latitude": 18.7459999, "longitude": 73.788333 }, "geometry": { "type": "Point", "coordinates": [ 73.788333, 18.7459999 ] } },
{ "type": "Feature", "properties": { "osm_id": 1242493623, "osm_type": "way", "amenity": "police", "name": "Unnamed", "latitude": 18.7538781, "longitude": 73.4045597 }, "geometry": { "type": "Point", "coordinates": [ 73.4045597, 18.7538781 ] } },
{ "type": "Feature", "properties": { "osm_id": 11545961639, "osm_type": "node", "amenity": "police", "name": "Unnamed", "latitude": 18.7539017, "longitude": 73.404556 }, "geometry": { "type": "Point", "coordinates": [ 73.404556, 18.7539017 ] } },
{ "type": "Feature", "properties": { "osm_id": 6975549707, "osm_type": "node", "amenity": "police", "name": "Kamshet Police Station", "latitude": 18.7624644, "longitude": 73.5590423 }, "geometry": { "type": "Point", "coordinates": [ 73.5590423, 18.7624644 ] } },
{ "type": "Feature", "properties": { "osm_id": 13634357622, "osm_type": "node", "amenity": "police", "name": "Mahalunge Police Station", "latitude": 18.7871321, "longitude": 73.7758382 }, "geometry": { "type": "Point", "coordinates": [ 73.7758382, 18.7871321 ] } },
{ "type": "Feature", "properties": { "osm_id": 5151038075, "osm_type": "node", "amenity": "police", "name": "Jejuri Police Station", "latitude": 18.2775545, "longitude": 74.1630866 }, "geometry": { "type": "Point", "coordinates": [ 74.1630866, 18.2775545 ] } },
{ "type": "Feature", "properties": { "osm_id": 5151038902, "osm_type": "node", "amenity": "police", "name": "Jejuri Police Line", "latitude": 18.278302, "longitude": 74.1635497 }, "geometry": { "type": "Point", "coordinates": [ 74.1635497, 18.278302 ] } },
{ "type": "Feature", "properties": { "osm_id": 9816866773, "osm_type": "node", "amenity": "police", "name": "Rural Police Station, Supe", "latitude": 18.3331184, "longitude": 74.3706366 }, "geometry": { "type": "Point", "coordinates": [ 74.3706366, 18.3331184 ] } },
{ "type": "Feature", "properties": { "osm_id": 5151320244, "osm_type": "node", "amenity": "police", "name": "Daund Railway Police Station", "latitude": 18.4630835, "longitude": 74.5809817 }, "geometry": { "type": "Point", "coordinates": [ 74.5809817, 18.4630835 ] } },
{ "type": "Feature", "properties": { "osm_id": 5302827826, "osm_type": "node", "amenity": "police", "name": "Unnamed", "latitude": 18.4659808, "longitude": 73.8904599 }, "geometry": { "type": "Point", "coordinates": [ 73.8904599, 18.4659808 ] } },
{ "type": "Feature", "properties": { "osm_id": 280430828, "osm_type": "node", "amenity": "police", "name": "Unnamed", "latitude": 18.5075612, "longitude": 73.9173998 }, "geometry": { "type": "Point", "coordinates": [ 73.9173998, 18.5075612 ] } },
{ "type": "Feature", "properties": { "osm_id": 14017739061, "osm_type": "node", "amenity": "police", "name": "Magarpatta City Police Station", "latitude": 18.52014, "longitude": 73.93117 }, "geometry": { "type": "Point", "coordinates": [ 73.93117, 18.52014 ] } },
{ "type": "Feature", "properties": { "osm_id": 13955649584, "osm_type": "node", "amenity": "police", "name": "Koregaon Park Police Station", "latitude": 18.5357577, "longitude": 73.8953015 }, "geometry": { "type": "Point", "coordinates": [ 73.8953015, 18.5357577 ] } },
{ "type": "Feature", "properties": { "osm_id": 10054125792, "osm_type": "node", "amenity": "police", "name": "Koregaon Police Chowki", "latitude": 18.5393504, "longitude": 73.8997958 }, "geometry": { "type": "Point", "coordinates": [ 73.8997958, 18.5393504 ] } },
{ "type": "Feature", "properties": { "osm_id": 1430470190, "osm_type": "way", "amenity": "police", "name": "Kharadi Police Station", "latitude": 18.5490279, "longitude": 73.9474895 }, "geometry": { "type": "Point", "coordinates": [ 73.9474895, 18.5490279 ] } },
{ "type": "Feature", "properties": { "osm_id": 1286673858, "osm_type": "way", "amenity": "police", "name": "Bharati Vidyapeeth Police Station", "latitude": 18.4590914, "longitude": 73.8576317 }, "geometry": { "type": "Point", "coordinates": [ 73.8576317, 18.4590914 ] } },
{ "type": "Feature", "properties": { "osm_id": 1041721250, "osm_type": "way", "amenity": "police", "name": "Kondhwa traffic police chowky", "latitude": 18.464748, "longitude": 73.8895195 }, "geometry": { "type": "Point", "coordinates": [ 73.8895195, 18.464748 ] } },
{ "type": "Feature", "properties": { "osm_id": 192206270, "osm_type": "way", "amenity": "police", "name": "Sahakarnagar Police Station", "latitude": 18.4894643, "longitude": 73.849652 }, "geometry": { "type": "Point", "coordinates": [ 73.849652, 18.4894643 ] } },
{ "type": "Feature", "properties": { "osm_id": 2027713730, "osm_type": "node", "amenity": "police", "name": "Laxminagar Police chowky", "latitude": 18.4896021, "longitude": 73.8497008 }, "geometry": { "type": "Point", "coordinates": [ 73.8497008, 18.4896021 ] } },
{ "type": "Feature", "properties": { "osm_id": 360474279, "osm_type": "way", "amenity": "police", "name": "Dattawadi Police Station", "latitude": 18.4929157, "longitude": 73.8481732 }, "geometry": { "type": "Point", "coordinates": [ 73.8481732, 18.4929157 ] } },
{ "type": "Feature", "properties": { "osm_id": 1466751926, "osm_type": "way", "amenity": "police", "name": "Maharshi Nagar Police Chowki", "latitude": 18.4933317, "longitude": 73.8711087 }, "geometry": { "type": "Point", "coordinates": [ 73.8711087, 18.4933317 ] } },
{ "type": "Feature", "properties": { "osm_id": 2935676185, "osm_type": "node", "amenity": "police", "name": "Swargate Police Station", "latitude": 18.5007921, "longitude": 73.8591594 }, "geometry": { "type": "Point", "coordinates": [ 73.8591594, 18.5007921 ] } },
{ "type": "Feature", "properties": { "osm_id": 2410718625, "osm_type": "node", "amenity": "police", "name": "Perugate Police Chowki", "latitude": 18.5113926, "longitude": 73.8487755 }, "geometry": { "type": "Point", "coordinates": [ 73.8487755, 18.5113926 ] } },
{ "type": "Feature", "properties": { "osm_id": 2289023585, "osm_type": "node", "amenity": "police", "name": "Sant Kabir Police Station", "latitude": 18.5148758, "longitude": 73.8688574 }, "geometry": { "type": "Point", "coordinates": [ 73.8688574, 18.5148758 ] } },
{ "type": "Feature", "properties": { "osm_id": 1909536882, "osm_type": "node", "amenity": "police", "name": "Ganesh Peth Police station", "latitude": 18.5161748, "longitude": 73.8621906 }, "geometry": { "type": "Point", "coordinates": [ 73.8621906, 18.5161748 ] } },
{ "type": "Feature", "properties": { "osm_id": 2550695929, "osm_type": "node", "amenity": "police", "name": "Narayan Peth Police Chowki", "latitude": 18.5162004, "longitude": 73.8478649 }, "geometry": { "type": "Point", "coordinates": [ 73.8478649, 18.5162004 ] } },
{ "type": "Feature", "properties": { "osm_id": 264444880, "osm_type": "way", "amenity": "police", "name": "Faraskhana Police Station", "latitude": 18.5164428, "longitude": 73.8558419 }, "geometry": { "type": "Point", "coordinates": [ 73.8558419, 18.5164428 ] } },
{ "type": "Feature", "properties": { "osm_id": 706927370, "osm_type": "way", "amenity": "police", "name": "Somwar Peth Police Station सोमवार पेठ पोलिस स्टेशन", "latitude": 18.5194625, "longitude": 73.8625641 }, "geometry": { "type": "Point", "coordinates": [ 73.8625641, 18.5194625 ] } },
{ "type": "Feature", "properties": { "osm_id": 3337848241, "osm_type": "node", "amenity": "police", "name": "Shaniwar Peth Police Chowki", "latitude": 18.5200094, "longitude": 73.8500242 }, "geometry": { "type": "Point", "coordinates": [ 73.8500242, 18.5200094 ] } },
{ "type": "Feature", "properties": { "osm_id": 3337848240, "osm_type": "node", "amenity": "police", "name": "Samarth Police Station", "latitude": 18.5203179, "longitude": 73.8696893 }, "geometry": { "type": "Point", "coordinates": [ 73.8696893, 18.5203179 ] } },
{ "type": "Feature", "properties": { "osm_id": 2868930213, "osm_type": "node", "amenity": "police", "name": "Kasba Peth Police Chowki", "latitude": 18.5204757, "longitude": 73.8560378 }, "geometry": { "type": "Point", "coordinates": [ 73.8560378, 18.5204757 ] } },
{ "type": "Feature", "properties": { "osm_id": 2289023583, "osm_type": "node", "amenity": "police", "name": "Balagandharva Police Station", "latitude": 18.5222358, "longitude": 73.8478417 }, "geometry": { "type": "Point", "coordinates": [ 73.8478417, 18.5222358 ] } },
{ "type": "Feature", "properties": { "osm_id": 674930856, "osm_type": "node", "amenity": "police", "name": "Council Hall Police Station", "latitude": 18.5244252, "longitude": 73.8788557 }, "geometry": { "type": "Point", "coordinates": [ 73.8788557, 18.5244252 ] } },
{ "type": "Feature", "properties": { "osm_id": 13616220311, "osm_type": "node", "amenity": "police", "name": "ShivajiNagar Police Station", "latitude": 18.529982, "longitude": 73.8500128 }, "geometry": { "type": "Point", "coordinates": [ 73.8500128, 18.529982 ] } },
{ "type": "Feature", "properties": { "osm_id": 6116290226, "osm_type": "node", "amenity": "police", "name": "Mangaldas Police Chowki", "latitude": 18.5339866, "longitude": 73.8789046 }, "geometry": { "type": "Point", "coordinates": [ 73.8789046, 18.5339866 ] } },
{ "type": "Feature", "properties": { "osm_id": 2183543117, "osm_type": "node", "amenity": "police", "name": "Yerawada Police Station", "latitude": 18.5527989, "longitude": 73.8957965 }, "geometry": { "type": "Point", "coordinates": [ 73.8957965, 18.5527989 ] } },
{ "type": "Feature", "properties": { "osm_id": 13629443264, "osm_type": "node", "amenity": "police", "name": "Ramwadi Police Station", "latitude": 18.5545552, "longitude": 73.9056355 }, "geometry": { "type": "Point", "coordinates": [ 73.9056355, 18.5545552 ] } },
{ "type": "Feature", "properties": { "osm_id": 10219230645, "osm_type": "node", "amenity": "police", "name": "Chandan nagar police", "latitude": 18.5570956, "longitude": 73.9280864 }, "geometry": { "type": "Point", "coordinates": [ 73.9280864, 18.5570956 ] } },
{ "type": "Feature", "properties": { "osm_id": 10219230644, "osm_type": "node", "amenity": "police", "name": "Police Station", "latitude": 18.5713171, "longitude": 73.9790844 }, "geometry": { "type": "Point", "coordinates": [ 73.9790844, 18.5713171 ] } },
{ "type": "Feature", "properties": { "osm_id": 10219198248, "osm_type": "node", "amenity": "police", "name": "Unit 6 Police Station", "latitude": 18.572673, "longitude": 73.9782357 }, "geometry": { "type": "Point", "coordinates": [ 73.9782357, 18.572673 ] } },
{ "type": "Feature", "properties": { "osm_id": 10219230643, "osm_type": "node", "amenity": "police", "name": "wagoli police station", "latitude": 18.581217, "longitude": 73.9865263 }, "geometry": { "type": "Point", "coordinates": [ 73.9865263, 18.581217 ] } },
{ "type": "Feature", "properties": { "osm_id": 10219198246, "osm_type": "node", "amenity": "police", "name": "police station Wagoli;Wagoli police station", "latitude": 18.5818249, "longitude": 73.9868542 }, "geometry": { "type": "Point", "coordinates": [ 73.9868542, 18.5818249 ] } },
{ "type": "Feature", "properties": { "osm_id": 10219198247, "osm_type": "node", "amenity": "police", "name": "lonikand Police station", "latitude": 18.620529, "longitude": 74.0237993 }, "geometry": { "type": "Point", "coordinates": [ 74.0237993, 18.620529 ] } },
{ "type": "Feature", "properties": { "osm_id": 907030435, "osm_type": "way", "amenity": "police", "name": "Shikrapur-Talegoan Dhamdhere Police Staion", "latitude": 18.6953473, "longitude": 74.1376597 }, "geometry": { "type": "Point", "coordinates": [ 74.1376597, 18.6953473 ] } },
{ "type": "Feature", "properties": { "osm_id": 4547351989, "osm_type": "node", "amenity": "police", "name": "Unnamed", "latitude": 18.5449382, "longitude": 73.8448569 }, "geometry": { "type": "Point", "coordinates": [ 73.8448569, 18.5449382 ] } },
{ "type": "Feature", "properties": { "osm_id": 2694489803, "osm_type": "node", "amenity": "police", "name": "Khadki Police Station", "latitude": 18.5571921, "longitude": 73.8454253 }, "geometry": { "type": "Point", "coordinates": [ 73.8454253, 18.5571921 ] } },
{ "type": "Feature", "properties": { "osm_id": 10610500277, "osm_type": "node", "amenity": "police", "name": "Vishrantwadi Police Station", "latitude": 18.5646718, "longitude": 73.8775269 }, "geometry": { "type": "Point", "coordinates": [ 73.8775269, 18.5646718 ] } },
{ "type": "Feature", "properties": { "osm_id": 5149385033, "osm_type": "node", "amenity": "police", "name": "Chakan Police Station", "latitude": 18.7594575, "longitude": 73.8633136 }, "geometry": { "type": "Point", "coordinates": [ 73.8633136, 18.7594575 ] } },
{ "type": "Feature", "properties": { "osm_id": 7632134931, "osm_type": "node", "amenity": "police", "name": "Khed Police Station", "latitude": 18.8499104, "longitude": 73.8867176 }, "geometry": { "type": "Point", "coordinates": [ 73.8867176, 18.8499104 ] } },
{ "type": "Feature", "properties": { "osm_id": 1161996883, "osm_type": "way", "amenity": "police", "name": "Khed Police Station", "latitude": 18.8541242, "longitude": 73.8813378 }, "geometry": { "type": "Point", "coordinates": [ 73.8813378, 18.8541242 ] } },
{ "type": "Feature", "properties": { "osm_id": 10290761614, "osm_type": "node", "amenity": "police", "name": "Otur Police Station", "latitude": 19.2702595, "longitude": 73.9816636 }, "geometry": { "type": "Point", "coordinates": [ 73.9816636, 19.2702595 ] } }
]
}
